start=new Date('2022-10-13T00:00:00.000Z').valueOf();
sats=[{"COUNTRY_CODE":"US","FILE":"3606891","DECAY_DATE":null,"APOAPSIS":"548.283","MEAN_MOTION_DOT":"0.00002306","PERIOD":"95.593","CENTER_NAME":"EARTH","REV_AT_EPOCH":"11682","INCLINATION":"53.0543","SITE":"AFETR","TIME_SYSTEM":"UTC","ECCENTRICITY":"0.00015140","TLE_LINE2":"2 46338  53.0543 200.6005 0001514  87.3086 272.8076 15.06393124116826","BSTAR":"0.00017371000000","CLASSIFICATION_TYPE":"U","ELEMENT_SET_NO":"999","PERIAPSIS":"546.186","SEMIMAJOR_AXIS":"6925.370","LAUNCH_DATE":"2020-09-03","MEAN_MOTION":"15.06393124","OBJECT_NAME":"STARLINK-1752","ARG_OF_PERICENTER":"87.3086","RA_OF_ASC_NODE":"200.6005","EPHEMERIS_TYPE":"0","NORAD_CAT_ID":"46338","RCS_SIZE":"LARGE","OBJECT_ID":"2020-062P","TLE_LINE1":"1 46338U 20062P   22285.81563148  .00002306  00000-0  17371-3 0  9992","MEAN_MOTION_DDOT":"0.0000000000000","MEAN_ELEMENT_THEORY":"SGP4","MEAN_ANOMALY":"272.8076","EPOCH":"2022-10-12T19:34:30.559872","REF_FRAME":"TEME","GP_ID":"214919106","OBJECT_TYPE":"PAYLOAD"},{"EPOCH":"2022-10-12T18:57:21.000096","REF_FRAME":"TEME","GP_ID":"214919351","OBJECT_TYPE":"PAYLOAD","RCS_SIZE":"LARGE","OBJECT_ID":"2020-062R","TLE_LINE1":"1 46340U 20062R   22285.78982639  .00000734  00000-0  68202-4 0  9994","MEAN_MOTION_DDOT":"0.0000000000000","MEAN_ELEMENT_THEORY":"SGP4","MEAN_ANOMALY":"275.6888","OBJECT_NAME":"STARLINK-1759","ARG_OF_PERICENTER":"84.4260","RA_OF_ASC_NODE":"200.7205","EPHEMERIS_TYPE":"0","NORAD_CAT_ID":"46340","PERIAPSIS":"546.280","SEMIMAJOR_AXIS":"6925.378","LAUNCH_DATE":"2020-09-03","MEAN_MOTION":"15.06390433","BSTAR":"0.00006820200000","TLE_LINE2":"2 46340  53.0551 200.7205 0001391  84.4260 275.6888 15.06390433116817","CLASSIFICATION_TYPE":"U","ELEMENT_SET_NO":"999","REV_AT_EPOCH":"11681","INCLINATION":"53.0551","SITE":"AFETR","ECCENTRICITY":"0.00013910","TIME_SYSTEM":"UTC","MEAN_MOTION_DOT":"0.00000734","PERIOD":"95.593","CENTER_NAME":"EARTH","COUNTRY_CODE":"US","FILE":"3606891","DECAY_DATE":null,"APOAPSIS":"548.206"},{"LAUNCH_DATE":"2020-09-03","PERIAPSIS":"546.290","SEMIMAJOR_AXIS":"6925.363","MEAN_MOTION":"15.06395389","OBJECT_NAME":"STARLINK-1760","ARG_OF_PERICENTER":"85.7064","EPHEMERIS_TYPE":"0","NORAD_CAT_ID":"46341","RA_OF_ASC_NODE":"180.6900","MEAN_MOTION_DDOT":"0.0000000000000","RCS_SIZE":"LARGE","TLE_LINE1":"1 46341U 20062S   22285.79534364  .00001053  00000-0  89607-4 0  9991","OBJECT_ID":"2020-062S","MEAN_ANOMALY":"274.4079","MEAN_ELEMENT_THEORY":"SGP4","REF_FRAME":"TEME","EPOCH":"2022-10-12T19:05:17.690496","GP_ID":"214919592","OBJECT_TYPE":"PAYLOAD","FILE":"3606891","COUNTRY_CODE":"US","APOAPSIS":"548.165","DECAY_DATE":null,"PERIOD":"95.592","MEAN_MOTION_DOT":"0.00001053","CENTER_NAME":"EARTH","INCLINATION":"53.0542","REV_AT_EPOCH":"11711","ECCENTRICITY":"0.00013540","TIME_SYSTEM":"UTC","SITE":"AFETR","TLE_LINE2":"2 46341  53.0542 180.6900 0001354  85.7064 274.4079 15.06395389117119","BSTAR":"0.00008960700000","ELEMENT_SET_NO":"999","CLASSIFICATION_TYPE":"U"},{"APOAPSIS":"548.151","DECAY_DATE":null,"FILE":"3606307","COUNTRY_CODE":"US","CENTER_NAME":"EARTH","PERIOD":"95.593","MEAN_MOTION_DOT":"0.00001505","TIME_SYSTEM":"UTC","ECCENTRICITY":"0.00013250","SITE":"AFETR","INCLINATION":"53.0571","REV_AT_EPOCH":"11700","ELEMENT_SET_NO":"999","CLASSIFICATION_TYPE":"U","BSTAR":"0.00011992000000","TLE_LINE2":"2 46342  53.0571 200.7744 0001325  93.4636 266.6505 15.06393379117003","MEAN_MOTION":"15.06393379","LAUNCH_DATE":"2020-09-03","SEMIMAJOR_AXIS":"6925.369","PERIAPSIS":"546.316","NORAD_CAT_ID":"46342","EPHEMERIS_TYPE":"0","RA_OF_ASC_NODE":"200.7744","ARG_OF_PERICENTER":"93.4636","OBJECT_NAME":"STARLINK-1762","MEAN_ANOMALY":"266.6505","MEAN_ELEMENT_THEORY":"SGP4","MEAN_MOTION_DDOT":"0.0000000000000","TLE_LINE1":"1 46342U 20062T   22285.77507705  .00001505  00000-0  11992-3 0  9992","OBJECT_ID":"2020-062T","RCS_SIZE":"LARGE","OBJECT_TYPE":"PAYLOAD","GP_ID":"214885751","REF_FRAME":"TEME","EPOCH":"2022-10-12T18:36:06.657120"},{"MEAN_MOTION_DOT":"0.00000692","PERIOD":"95.592","CENTER_NAME":"EARTH","COUNTRY_CODE":"US","FILE":"3606891","DECAY_DATE":null,"APOAPSIS":"548.228","TLE_LINE2":"2 46343  53.0533 180.4999 0001451  96.9778 263.1376 15.06397008117116","BSTAR":"0.00006534400000","CLASSIFICATION_TYPE":"U","ELEMENT_SET_NO":"999","REV_AT_EPOCH":"11711","INCLINATION":"53.0533","SITE":"AFETR","ECCENTRICITY":"0.00014510","TIME_SYSTEM":"UTC","OBJECT_NAME":"STARLINK-1764","ARG_OF_PERICENTER":"96.9778","RA_OF_ASC_NODE":"180.4999","EPHEMERIS_TYPE":"0","NORAD_CAT_ID":"46343","PERIAPSIS":"546.218","SEMIMAJOR_AXIS":"6925.358","LAUNCH_DATE":"2020-09-03","MEAN_MOTION":"15.06397008","EPOCH":"2022-10-12T20:03:41.253696","REF_FRAME":"TEME","GP_ID":"214918607","OBJECT_TYPE":"PAYLOAD","RCS_SIZE":"LARGE","TLE_LINE1":"1 46343U 20062U   22285.83589414  .00000692  00000-0  65344-4 0  9994","OBJECT_ID":"2020-062U","MEAN_MOTION_DDOT":"0.0000000000000","MEAN_ELEMENT_THEORY":"SGP4","MEAN_ANOMALY":"263.1376"},{"PERIOD":"95.592","MEAN_MOTION_DOT":"0.00004513","CENTER_NAME":"EARTH","FILE":"3606891","COUNTRY_CODE":"US","APOAPSIS":"548.322","DECAY_DATE":null,"TLE_LINE2":"2 46344  53.0545 180.4269 0001603 121.1534 238.9612 15.06400625117113","BSTAR":"0.00032168000000","ELEMENT_SET_NO":"999","CLASSIFICATION_TYPE":"U","INCLINATION":"53.0545","REV_AT_EPOCH":"11711","TIME_SYSTEM":"UTC","ECCENTRICITY":"0.00016030","SITE":"AFETR","OBJECT_NAME":"STARLINK-1765","ARG_OF_PERICENTER":"121.1534","EPHEMERIS_TYPE":"0","NORAD_CAT_ID":"46344","RA_OF_ASC_NODE":"180.4269","LAUNCH_DATE":"2020-09-03","PERIAPSIS":"546.102","SEMIMAJOR_AXIS":"6925.347","MEAN_MOTION":"15.06400625","REF_FRAME":"TEME","EPOCH":"2022-10-12T20:30:13.556448","GP_ID":"214919852","OBJECT_TYPE":"PAYLOAD","MEAN_MOTION_DDOT":"0.0000000000000","RCS_SIZE":"LARGE","OBJECT_ID":"2020-062V","TLE_LINE1":"1 46344U 20062V   22285.85432357  .00004513  00000-0  32168-3 0  9993","MEAN_ANOMALY":"238.9612","MEAN_ELEMENT_THEORY":"SGP4"},{"MEAN_MOTION":"15.06385983","SEMIMAJOR_AXIS":"6925.392","PERIAPSIS":"546.201","LAUNCH_DATE":"2020-09-03","RA_OF_ASC_NODE":"200.3987","NORAD_CAT_ID":"46345","EPHEMERIS_TYPE":"0","ARG_OF_PERICENTER":"99.8350","OBJECT_NAME":"STARLINK-1767","MEAN_ELEMENT_THEORY":"SGP4","MEAN_ANOMALY":"260.2811","OBJECT_ID":"2020-062W","TLE_LINE1":"1 46345U 20062W   22285.85522861  .00000922  00000-0  80813-4 0  9995","RCS_SIZE":"LARGE","MEAN_MOTION_DDOT":"0.0000000000000","OBJECT_TYPE":"PAYLOAD","GP_ID":"214920093","EPOCH":"2022-10-12T20:31:31.751904","REF_FRAME":"TEME","DECAY_DATE":null,"APOAPSIS":"548.312","COUNTRY_CODE":"US","FILE":"3606891","CENTER_NAME":"EARTH","MEAN_MOTION_DOT":"0.00000922","PERIOD":"95.593","SITE":"AFETR","ECCENTRICITY":"0.00015240","TIME_SYSTEM":"UTC","REV_AT_EPOCH":"11683","INCLINATION":"53.0564","CLASSIFICATION_TYPE":"U","ELEMENT_SET_NO":"999","BSTAR":"0.00008081300000","TLE_LINE2":"2 46345  53.0564 200.3987 0001524  99.8350 260.2811 15.06385983116839"},{"MEAN_MOTION":"15.34278797","SEMIMAJOR_AXIS":"6841.201","PERIAPSIS":"461.205","LAUNCH_DATE":"2020-09-03","RA_OF_ASC_NODE":"22.3948","NORAD_CAT_ID":"46346","EPHEMERIS_TYPE":"0","ARG_OF_PERICENTER":"37.6723","OBJECT_NAME":"STARLINK-1546","MEAN_ELEMENT_THEORY":"SGP4","MEAN_ANOMALY":"322.4468","OBJECT_ID":"2020-062X","TLE_LINE1":"1 46346U 20062X   22285.53346820  .00013039  00000-0  39784-3 0  9993","RCS_SIZE":"LARGE","MEAN_MOTION_DDOT":"0.0000000000000","OBJECT_TYPE":"PAYLOAD","GP_ID":"214842849","EPOCH":"2022-10-12T12:48:11.652480","REF_FRAME":"TEME","DECAY_DATE":null,"APOAPSIS":"464.926","COUNTRY_CODE":"US","FILE":"3605409","CENTER_NAME":"EARTH","MEAN_MOTION_DOT":"0.00013039","PERIOD":"93.855","SITE":"AFETR","ECCENTRICITY":"0.00027190","TIME_SYSTEM":"UTC","REV_AT_EPOCH":"11950","INCLINATION":"53.0548","CLASSIFICATION_TYPE":"U","ELEMENT_SET_NO":"999","TLE_LINE2":"2 46346  53.0548  22.3948 0002719  37.6723 322.4468 15.34278797119503","BSTAR":"0.00039784000000"},{"TLE_LINE2":"2 46347  53.0553 155.8931 0001233  97.1915 262.9214 15.06382298117436","BSTAR":"0.00028960000000","ELEMENT_SET_NO":"999","CLASSIFICATION_TYPE":"U","INCLINATION":"53.0553","REV_AT_EPOCH":"11743","TIME_SYSTEM":"UTC","ECCENTRICITY":"0.00012330","SITE":"AFETR","PERIOD":"95.593","MEAN_MOTION_DOT":"0.00004033","CENTER_NAME":"EARTH","FILE":"3606891","COUNTRY_CODE":"US","APOAPSIS":"548.122","DECAY_DATE":null,"REF_FRAME":"TEME","EPOCH":"2022-10-12T17:56:58.576416","GP_ID":"214919107","OBJECT_TYPE":"PAYLOAD","MEAN_MOTION_DDOT":"0.0000000000000","RCS_SIZE":"LARGE","OBJECT_ID":"2020-062Y","TLE_LINE1":"1 46347U 20062Y   22285.74790019  .00004033  00000-0  28960-3 0  9998","MEAN_ANOMALY":"262.9214","MEAN_ELEMENT_THEORY":"SGP4","OBJECT_NAME":"STARLINK-1547","ARG_OF_PERICENTER":"97.1915","EPHEMERIS_TYPE":"0","NORAD_CAT_ID":"46347","RA_OF_ASC_NODE":"155.8931","LAUNCH_DATE":"2020-09-03","PERIAPSIS":"546.414","SEMIMAJOR_AXIS":"6925.403","MEAN_MOTION":"15.06382298"},{"CLASSIFICATION_TYPE":"U","ELEMENT_SET_NO":"999","TLE_LINE2":"2 46348  53.0540 180.3920 0001399 116.1792 243.9341 15.06394495117119","BSTAR":"0.00046479000000","SITE":"AFETR","TIME_SYSTEM":"UTC","ECCENTRICITY":"0.00013990","REV_AT_EPOCH":"11711","INCLINATION":"53.0540","CENTER_NAME":"EARTH","MEAN_MOTION_DOT":"0.00006647","PERIOD":"95.592","DECAY_DATE":null,"APOAPSIS":"548.199","COUNTRY_CODE":"US","FILE":"3606891","GP_ID":"214919352","OBJECT_TYPE":"PAYLOAD","EPOCH":"2022-10-12T20:35:33.180288","REF_FRAME":"TEME","MEAN_ELEMENT_THEORY":"SGP4","MEAN_ANOMALY":"243.9341","RCS_SIZE":"LARGE","OBJECT_ID":"2020-062Z","TLE_LINE1":"1 46348U 20062Z   22285.85802292  .00006647  00000-0  46479-3 0  9996","MEAN_MOTION_DDOT":"0.0000000000000","RA_OF_ASC_NODE":"180.3920","EPHEMERIS_TYPE":"0","NORAD_CAT_ID":"46348","OBJECT_NAME":"STARLINK-1553","ARG_OF_PERICENTER":"116.1792","MEAN_MOTION":"15.06394495","PERIAPSIS":"546.262","SEMIMAJOR_AXIS":"6925.365","LAUNCH_DATE":"2020-09-03"}];
